NORAD_CAT_ID,OBJECT_NAME,OBJECT_TYPE,EPOCH,MEAN_MOTION,ECCENTRICITY,INCLINATION,RA_OF_ASC_NODE,ARG_OF_PERICENTER,MEAN_ANOMALY,BSTAR,MEAN_MOTION_DOT,MEAN_MOTION_DDOT,TLE_LINE0,TLE_LINE1,TLE_LINE2,SEMIMAJOR_AXIS,PERIOD,APOGEE,PERIGEE,DECAYED
53636.0,STARLINK-4586,PAYLOAD,2023-01-14 06:30:45,15.08862272,0.0001901,53.2192,348.3695,74.3776,285.7426,0.0011440999999999,0.00017978,0.0,0 STARLINK-4586,1 53636U 22104BA  23014.27136075  .00017978  00000-0  11441-2 0  9998,2 53636  53.2192 348.3695 0001901  74.3776 285.7426 15.08862272 21536,6917.812,95.436,540.992,538.362,0.0
53636.0,STARLINK-4586,PAYLOAD,2023-01-15 04:46:09,15.08853834,0.0002171999999999,53.2198,344.2081,81.9397,278.1842,0.00046446,7.114e-05,0.0,0 STARLINK-4586,1 53636U 22104BA  23015.19871854  .00007114  00000-0  46446-3 0  9996,2 53636  53.2198 344.2081 0002172  81.9397 278.1842 15.08853834 21677,6917.838000000001,95.437,541.206,538.201,0.0
53636.0,STARLINK-4586,PAYLOAD,2023-01-15 06:21:32,15.08852152,0.0002089999999999,53.2198,343.9113,81.5901,278.5328,0.00032815,4.94e-05,0.0,0 STARLINK-4586,1 53636U 22104BA  23015.26495837  .00004940  00000-0  32815-3 0  9996,2 53636  53.2198 343.9113 0002090  81.5901 278.5328 15.08852152 22705,6917.843000000001,95.437,541.154,538.262,0.0
53636.0,STARLINK-4586,PAYLOAD,2023-01-15 14:18:28,15.08847931,0.0002129,53.22,342.4249,82.7289,277.3945,0.00015656,2.205e-05,0.0,0 STARLINK-4586,1 53636U 22104BA  23015.59615769  .00002205  00000-0  15656-3 0  9996,2 53636  53.2200 342.4249 0002129  82.7289 277.3945 15.08847931 21731,6917.856,95.437,541.194,538.248,0.0
53636.0,STARLINK-4586,PAYLOAD,2023-01-16 04:36:54,15.08872281,0.000151,53.219,339.7484,77.3501,282.766,0.0004796999999999,7.361e-05,0.0,0 STARLINK-4586,1 53636U 22104BA  23016.19230150  .00007361  00000-0  47970-3 0  9992,2 53636  53.2190 339.7484 0001510  77.3501 282.7660 15.08872281 21829,6917.781999999999,95.436,540.691,538.602,0.0
53636.0,STARLINK-4586,PAYLOAD,2023-01-16 07:47:40,15.08873921,0.0001496999999999,53.2189,339.1538,77.7106,282.4054,0.00050643,7.788e-05,0.0,0 STARLINK-4586,1 53636U 22104BA  23016.32477908  .00007788  00000-0  50643-3 0  9995,2 53636  53.2189 339.1538 0001497  77.7106 282.4054 15.08873921 22861,6917.776999999999,95.435,540.677,538.606,0.0
53636.0,STARLINK-4586,PAYLOAD,2023-01-16 22:06:11,15.0880511,0.0001647,53.2209,336.4781,70.2941,289.8229,-0.00065406,-0.00010672,0.0,0 STARLINK-4586,1 53636U 22104BA  23016.92097018 -.00010672  00000-0 -65406-3 0  9992,2 53636  53.2209 336.4781 0001647  70.2941 289.8229 15.08805110 21933,6917.986999999999,95.44,540.991,538.7130000000001,0.0
53636.0,STARLINK-4586,PAYLOAD,2023-01-17 14:00:03,15.0882376,0.0001498,53.22,333.5049,75.0081,285.1077,-8.4329e-05,-1.629e-05,0.0,0 STARLINK-4586,1 53636U 22104BA  23017.58337204 -.00001629  00000-0 -84329-4 0  9997,2 53636  53.2200 333.5049 0001498  75.0081 285.1077 15.08823760 22034,6917.93,95.439,540.831,538.759,0.0
53636.0,STARLINK-4586,PAYLOAD,2023-01-17 20:21:36,15.0882791,0.0001554999999999,53.22,332.3191,78.484,281.6326,9.7329e-05,1.261e-05,0.0,0 STARLINK-4586,1 53636U 22104BA  23017.84833536  .00001261  00000-0  97329-4 0  9999,2 53636  53.2200 332.3191 0001555  78.4840 281.6326 15.08827910 23099,6917.917,95.438,540.8580000000001,538.707,0.0
53636.0,STARLINK-4586,PAYLOAD,2023-01-18 05:53:54,15.08848305,0.000147,53.219,330.5291,67.9305,292.1843,0.0012654,0.00019913,0.0,0 STARLINK-4586,1 53636U 22104BA  23018.24577207  .00019913  00000-0  12654-2 0  9993,2 53636  53.2190 330.5291 0001470  67.9305 292.1843 15.08848305 22139,6917.855,95.437,540.737,538.703,0.0
53636.0,STARLINK-4586,PAYLOAD,2023-01-18 13:50:50,15.08852545,0.0001288,53.2195,329.0461,65.846,294.2667,0.0007447,0.00011588,0.0,0 STARLINK-4586,1 53636U 22104BA  23018.57696991  .00011588  00000-0  74470-3 0  9996,2 53636  53.2195 329.0461 0001288  65.8460 294.2667 15.08852545 23209,6917.842,95.437,540.5980000000001,538.816,0.0
53636.0,STARLINK-4586,PAYLOAD,2023-01-18 15:26:13,15.08853969,0.0001312,53.2181,328.7495,62.0745,298.0379,0.00070507,0.00010955,0.0,0 STARLINK-4586,1 53636U 22104BA  23018.64320915  .00010955  00000-0  70507-3 0  9998,2 53636  53.2181 328.7495 0001312  62.0745 298.0379 15.08853969 22190,6917.838000000001,95.437,540.61,538.795,0.0
53636.0,STARLINK-4586,PAYLOAD,2023-01-19 05:44:40,15.08872827,0.0001547,53.2177,326.0698,89.4866,270.6304,0.00056873,8.783e-05,0.0,0 STARLINK-4586,1 53636U 22104BA  23019.23935520  .00008783  00000-0  56873-3 0  9994,2 53636  53.2177 326.0698 0001547  89.4866 270.6304 15.08872827 23300,6917.78,95.435,540.715,538.575,0.0
53636.0,STARLINK-4586,PAYLOAD,2023-01-19 15:16:59,15.08846707,6.809999999999999e-05,53.2183,324.2867,66.6195,293.4869,-0.00010309,-1.928e-05,0.0,0 STARLINK-4586,1 53636U 22104BA  23019.63679927 -.00001928  00000-0 -10309-3 0  9994,2 53636  53.2183 324.2867 0000681  66.6195 293.4869 15.08846707 22345,6917.86,95.437,540.196,539.254,0.0
53636.0,STARLINK-4586,PAYLOAD,2023-01-20 05:35:28,15.08849338,0.0001109,53.218,321.6112,95.6665,264.4453,0.00092434,0.00014457,0.0,0 STARLINK-4586,1 53636U 22104BA  23020.23296301  .00014457  00000-0  92434-3 0  9991,2 53636  53.2180 321.6112 0001109  95.6665 264.4453 15.08849338 23459,6917.852,95.437,540.484,538.95,0.0
53636.0,STARLINK-4586,PAYLOAD,2023-01-21 05:26:15,15.08860421,0.0001087,53.2186,317.1518,79.8301,280.2814,0.0020521,0.0003253999999999,0.0,0 STARLINK-4586,1 53636U 22104BA  23021.22657253  .00032540  00000-0  20521-2 0  9998,2 53636  53.2186 317.1518 0001087  79.8301 280.2814 15.08860421 22587,6917.818,95.436,540.435,538.931,0.0
53636.0,STARLINK-4586,PAYLOAD,2023-01-22 05:17:02,15.08878527,0.0001786999999999,53.219,312.6915,74.3366,285.7823,0.0019196999999999,0.00030429,0.0,0 STARLINK-4586,1 53636U 22104BA  23022.22016882  .00030429  00000-0  19197-2 0  9997,2 53636  53.2190 312.6915 0001787  74.3366 285.7823 15.08878527 22734,6917.763000000001,95.435,540.864,538.391,0.0
53636.0,STARLINK-4586,PAYLOAD,2023-01-22 19:35:31,15.08828968,0.0001137999999999,53.2184,310.0153,123.2267,236.8835,0.0019595,0.00031026,0.0,0 STARLINK-4586,1 53636U 22104BA  23022.81633201  .00031026  00000-0  19595-2 0  9998,2 53636  53.2184 310.0153 0001138 123.2267 236.8835 15.08828968 22821,6917.914000000001,95.438,540.566,538.992,0.0
53636.0,STARLINK-4586,PAYLOAD,2023-01-23 11:29:22,15.08848279,0.0001144,53.2199,307.0411,117.8469,242.2639,0.0010351,0.00016228,0.0,0 STARLINK-4586,1 53636U 22104BA  23023.47873203  .00016228  00000-0  10351-2 0  9997,2 53636  53.2199 307.0411 0001144 117.8469 242.2639 15.08848279 22921,6917.855,95.437,540.511,538.929,0.0
53636.0,STARLINK-4586,PAYLOAD,2023-01-24 04:58:37,15.08846426,0.0001325,53.2187,303.7703,97.6075,262.5068,0.00032922,4.956e-05,0.0,0 STARLINK-4586,1 53636U 22104BA  23024.20737325  .00004956  00000-0  32922-3 0  9997,2 53636  53.2187 303.7703 0001325  97.6075 262.5068 15.08846426 23030,6917.861,95.437,540.6419999999999,538.809,0.0
53636.0,STARLINK-4586,PAYLOAD,2023-01-25 03:14:00,15.08853037,0.000103,53.2177,299.6077,105.8663,254.2442,0.00048643,7.465e-05,0.0,0 STARLINK-4586,1 53636U 22104BA  23025.13473372  .00007465  00000-0  48643-3 0  9994,2 53636  53.2177 299.6077 0001030 105.8663 254.2442 15.08853037 23179,6917.840999999999,95.437,540.418,538.993,0.0
53636.0,STARLINK-4586,PAYLOAD,2023-01-25 11:10:56,15.0884076,0.0001524,53.217,298.1195,84.689,275.4276,0.00017432,2.487e-05,0.0,0 STARLINK-4586,1 53636U 22104BA  23025.46593528  .00002487  00000-0  17432-3 0  9997,2 53636  53.2170 298.1195 0001524  84.6890 275.4276 15.08840760 23226,6917.878000000001,95.438,540.797,538.689,0.0
53636.0,STARLINK-4586,PAYLOAD,2023-01-25 17:32:29,15.08843372,0.0001763,53.2154,296.9315,80.0303,280.0888,0.000287,4.283e-05,0.0,0 STARLINK-4586,1 53636U 22104BA  23025.73089844  .00004283  00000-0  28700-3 0  9994,2 53636  53.2154 296.9315 0001763  80.0303 280.0888 15.08843372 24282,6917.87,95.437,540.955,538.515,0.0
53636.0,STARLINK-4586,PAYLOAD,2023-01-26 03:04:48,15.08848938,0.0001145,53.2175,295.1474,82.479,277.6332,0.0003538,5.349e-05,0.0,0 STARLINK-4586,1 53636U 22104BA  23026.12833607  .00005349  00000-0  35380-3 0  9998,2 53636  53.2175 295.1474 0001145  82.4790 277.6332 15.08848938 24348,6917.853,95.437,540.51,538.9259999999999,0.0
53636.0,STARLINK-4586,PAYLOAD,2023-01-26 23:44:49,15.08848408,0.0001030999999999,53.2148,291.2819,90.4158,269.6953,0.00043132,6.585e-05,0.0,0 STARLINK-4586,1 53636U 22104BA  23026.98945622  .00006585  00000-0  43132-3 0  9990,2 53636  53.2148 291.2819 0001031  90.4158 269.6953 15.08848408 23452,6917.855,95.437,540.433,539.006,0.0
53636.0,STARLINK-4586,PAYLOAD,2023-01-27 02:55:35,15.08860401,0.0001014999999999,53.2159,290.6869,85.7129,274.398,0.00080141,0.00012497,0.0,0 STARLINK-4586,1 53636U 22104BA  23027.12193378  .00012497  00000-0  80141-3 0  9990,2 53636  53.2159 290.6869 0001015  85.7129 274.3980 15.08860401 23471,6917.818,95.436,540.385,538.981,0.0
53636.0,STARLINK-4586,PAYLOAD,2023-01-28 02:46:22,15.08844191,0.0001279,53.2168,286.2248,80.9644,279.1493,0.00056209,8.669999999999999e-05,0.0,0 STARLINK-4586,1 53636U 22104BA  23028.11554075  .00008670  00000-0  56209-3 0  9991,2 53636  53.2168 286.2248 0001279  80.9644 279.1493 15.08844191 23621,6917.868,95.437,540.617,538.8480000000001,0.0
53636.0,STARLINK-4586,PAYLOAD,2023-01-28 20:15:37,15.08844877,0.0001459,53.217,282.9539,80.9986,279.1171,0.00040813,6.214e-05,0.0,0 STARLINK-4586,1 53636U 22104BA  23028.84418115  .00006214  00000-0  40813-3 0  9991,2 53636  53.2170 282.9539 0001459  80.9986 279.1171 15.08844877 24758,6917.865,95.437,540.74,538.721,0.0
53636.0,STARLINK-4586,PAYLOAD,2023-01-29 02:37:09,15.08851253,0.0001494,53.2174,281.7637,86.1933,273.923,0.00048496,7.441e-05,0.0,0 STARLINK-4586,1 53636U 22104BA  23029.10913849  .00007441  00000-0  48496-3 0  9993,2 53636  53.2174 281.7637 0001494  86.1933 273.9230 15.08851253 23772,6917.846,95.437,540.745,538.677,0.0
